[{"OBJECT_NAME":"APRIZESAT 2","OBJECT_ID":"2004-025A","EPOCH":"2026-03-06T00:38:39.237792","MEAN_MOTION":14.37984837,"ECCENTRICITY":0.01052495,"INCLINATION":98.0904,"RA_OF_ASC_NODE":236.8986,"ARG_OF_PERICENTER":200.9072,"MEAN_ANOMALY":158.7797,"EPHEMERIS_TYPE":0,"CLASSIFICATION_TYPE":"U","NORAD_CAT_ID":28366,"ELEMENT_SET_NO":999,"REV_AT_EPOCH":13681,"BSTAR":0.00014127614,"MEAN_MOTION_DOT":4.13e-6,"MEAN_MOTION_DDOT":0},{"OBJECT_NAME":"SAUDICOMSAT 1","OBJECT_ID":"2004-025D","EPOCH":"2026-03-06T07:20:57.170400","MEAN_MOTION":14.55384339,"ECCENTRICITY":0.00317703,"INCLINATION":98.581,"RA_OF_ASC_NODE":72.6496,"ARG_OF_PERICENTER":340.7898,"MEAN_ANOMALY":19.2099,"EPHEMERIS_TYPE":0,"CLASSIFICATION_TYPE":"U","NORAD_CAT_ID":28369,"ELEMENT_SET_NO":999,"REV_AT_EPOCH":14916,"BSTAR":0.00017656824,"MEAN_MOTION_DOT":7.22e-6,"MEAN_MOTION_DDOT":0},{"OBJECT_NAME":"SAUDICOMSAT 2","OBJECT_ID":"2004-025E","EPOCH":"2026-03-06T10:35:10.371264","MEAN_MOTION":14.49906274,"ECCENTRICITY":0.00550346,"INCLINATION":98.6687,"RA_OF_ASC_NODE":74.7669,"ARG_OF_PERICENTER":209.7937,"MEAN_ANOMALY":150.0119,"EPHEMERIS_TYPE":0,"CLASSIFICATION_TYPE":"U","NORAD_CAT_ID":28370,"ELEMENT_SET_NO":999,"REV_AT_EPOCH":14521,"BSTAR":0.00012859468,"MEAN_MOTION_DOT":4.57e-6,"MEAN_MOTION_DDOT":0},{"OBJECT_NAME":"APRIZESAT 1","OBJECT_ID":"2004-025G","EPOCH":"2026-03-06T19:21:58.690656","MEAN_MOTION":14.51712321,"ECCENTRICITY":0.0045812,"INCLINATION":98.6345,"RA_OF_ASC_NODE":73.7293,"ARG_OF_PERICENTER":106.1282,"MEAN_ANOMALY":254.4962,"EPHEMERIS_TYPE":0,"CLASSIFICATION_TYPE":"U","NORAD_CAT_ID":28372,"ELEMENT_SET_NO":999,"REV_AT_EPOCH":14705,"BSTAR":0.00011975,"MEAN_MOTION_DOT":4.38e-6,"MEAN_MOTION_DDOT":0},{"OBJECT_NAME":"NANOSAT-1","OBJECT_ID":"2004-049B","EPOCH":"2026-03-06T19:31:06.532320","MEAN_MOTION":14.79910503,"ECCENTRICITY":0.0002852,"INCLINATION":98.2094,"RA_OF_ASC_NODE":200.0862,"ARG_OF_PERICENTER":257.6901,"MEAN_ANOMALY":102.3991,"EPHEMERIS_TYPE":0,"CLASSIFICATION_TYPE":"U","NORAD_CAT_ID":28493,"ELEMENT_SET_NO":999,"REV_AT_EPOCH":14030,"BSTAR":0.00027723,"MEAN_MOTION_DOT":2.038e-5,"MEAN_MOTION_DDOT":0},{"OBJECT_NAME":"SAUDICOMSAT 7","OBJECT_ID":"2007-012C","EPOCH":"2026-03-06T09:28:26.721408","MEAN_MOTION":14.65964588,"ECCENTRICITY":0.00562662,"INCLINATION":98.3676,"RA_OF_ASC_NODE":37.4932,"ARG_OF_PERICENTER":157.3933,"MEAN_ANOMALY":202.9767,"EPHEMERIS_TYPE":0,"CLASSIFICATION_TYPE":"U","NORAD_CAT_ID":31119,"ELEMENT_SET_NO":999,"REV_AT_EPOCH":737,"BSTAR":0.00018370695,"MEAN_MOTION_DOT":9.76e-6,"MEAN_MOTION_DDOT":0},{"OBJECT_NAME":"SAUDICOMSAT 6","OBJECT_ID":"2007-012E","EPOCH":"2026-03-06T09:30:58.911552","MEAN_MOTION":14.62424822,"ECCENTRICITY":0.00707009,"INCLINATION":98.3985,"RA_OF_ASC_NODE":31.0793,"ARG_OF_PERICENTER":287.2489,"MEAN_ANOMALY":72.0984,"EPHEMERIS_TYPE":0,"CLASSIFICATION_TYPE":"U","NORAD_CAT_ID":31121,"ELEMENT_SET_NO":999,"REV_AT_EPOCH":516,"BSTAR":0.00022974064,"MEAN_MOTION_DOT":1.151e-5,"MEAN_MOTION_DDOT":0},{"OBJECT_NAME":"SAUDICOMSAT 5","OBJECT_ID":"2007-012H","EPOCH":"2026-03-06T08:59:32.911872","MEAN_MOTION":14.67994553,"ECCENTRICITY":0.00488501,"INCLINATION":98.3388,"RA_OF_ASC_NODE":38.2397,"ARG_OF_PERICENTER":89.0928,"MEAN_ANOMALY":271.5872,"EPHEMERIS_TYPE":0,"CLASSIFICATION_TYPE":"U","NORAD_CAT_ID":31124,"ELEMENT_SET_NO":999,"REV_AT_EPOCH":851,"BSTAR":0.00022996048,"MEAN_MOTION_DOT":1.288e-5,"MEAN_MOTION_DDOT":0},{"OBJECT_NAME":"SAUDICOMSAT 3","OBJECT_ID":"2007-012J","EPOCH":"2026-03-06T20:27:20.803104","MEAN_MOTION":14.70516673,"ECCENTRICITY":0.0039734,"INCLINATION":98.3046,"RA_OF_ASC_NODE":39.2863,"ARG_OF_PERICENTER":17.4828,"MEAN_ANOMALY":342.7735,"EPHEMERIS_TYPE":0,"CLASSIFICATION_TYPE":"U","NORAD_CAT_ID":31125,"ELEMENT_SET_NO":999,"REV_AT_EPOCH":978,"BSTAR":0.00030355,"MEAN_MOTION_DOT":1.81e-5,"MEAN_MOTION_DDOT":0},{"OBJECT_NAME":"SAUDICOMSAT 4","OBJECT_ID":"2007-012L","EPOCH":"2026-03-06T20:54:26.277408","MEAN_MOTION":14.6437376,"ECCENTRICITY":0.0062697,"INCLINATION":98.3879,"RA_OF_ASC_NODE":36.4296,"ARG_OF_PERICENTER":217.1984,"MEAN_ANOMALY":142.4866,"EPHEMERIS_TYPE":0,"CLASSIFICATION_TYPE":"U","NORAD_CAT_ID":31127,"ELEMENT_SET_NO":999,"REV_AT_EPOCH":631,"BSTAR":0.00018293,"MEAN_MOTION_DOT":9.41e-6,"MEAN_MOTION_DDOT":0},{"OBJECT_NAME":"APRIZESAT 4","OBJECT_ID":"2009-041D","EPOCH":"2026-03-06T03:33:05.560128","MEAN_MOTION":14.83699785,"ECCENTRICITY":0.00422118,"INCLINATION":98.1492,"RA_OF_ASC_NODE":138.3975,"ARG_OF_PERICENTER":296.5139,"MEAN_ANOMALY":63.1748,"EPHEMERIS_TYPE":0,"CLASSIFICATION_TYPE":"U","NORAD_CAT_ID":35684,"ELEMENT_SET_NO":999,"REV_AT_EPOCH":89608,"BSTAR":0.00012624797,"MEAN_MOTION_DOT":1.0e-5,"MEAN_MOTION_DDOT":0},{"OBJECT_NAME":"APRIZESAT 3","OBJECT_ID":"2009-041F","EPOCH":"2026-03-06T20:02:19.291200","MEAN_MOTION":14.95889516,"ECCENTRICITY":0.0063121,"INCLINATION":98.1899,"RA_OF_ASC_NODE":214.2676,"ARG_OF_PERICENTER":46.0435,"MEAN_ANOMALY":314.5967,"EPHEMERIS_TYPE":0,"CLASSIFICATION_TYPE":"U","NORAD_CAT_ID":35686,"ELEMENT_SET_NO":999,"REV_AT_EPOCH":90107,"BSTAR":0.00024132,"MEAN_MOTION_DOT":2.741e-5,"MEAN_MOTION_DDOT":0},{"OBJECT_NAME":"S-NET D","OBJECT_ID":"2018-014G","EPOCH":"2026-03-06T07:22:34.729824","MEAN_MOTION":15.15572278,"ECCENTRICITY":0.00091986,"INCLINATION":97.5438,"RA_OF_ASC_NODE":330.7785,"ARG_OF_PERICENTER":26.1886,"MEAN_ANOMALY":333.981,"EPHEMERIS_TYPE":0,"CLASSIFICATION_TYPE":"U","NORAD_CAT_ID":43186,"ELEMENT_SET_NO":999,"REV_AT_EPOCH":44317,"BSTAR":0.00035907575,"MEAN_MOTION_DOT":6.754e-5,"MEAN_MOTION_DDOT":0},{"OBJECT_NAME":"S-NET B","OBJECT_ID":"2018-014H","EPOCH":"2026-03-06T06:01:10.549056","MEAN_MOTION":15.15545211,"ECCENTRICITY":0.00097226,"INCLINATION":97.5446,"RA_OF_ASC_NODE":330.7057,"ARG_OF_PERICENTER":21.62,"MEAN_ANOMALY":338.5441,"EPHEMERIS_TYPE":0,"CLASSIFICATION_TYPE":"U","NORAD_CAT_ID":43187,"ELEMENT_SET_NO":999,"REV_AT_EPOCH":44316,"BSTAR":0.00036607405,"MEAN_MOTION_DOT":6.883e-5,"MEAN_MOTION_DDOT":0},{"OBJECT_NAME":"S-NET A","OBJECT_ID":"2018-014J","EPOCH":"2026-03-06T07:21:39.575520","MEAN_MOTION":15.15578985,"ECCENTRICITY":0.0009624,"INCLINATION":97.5456,"RA_OF_ASC_NODE":330.9512,"ARG_OF_PERICENTER":21.8834,"MEAN_ANOMALY":338.2807,"EPHEMERIS_TYPE":0,"CLASSIFICATION_TYPE":"U","NORAD_CAT_ID":43188,"ELEMENT_SET_NO":999,"REV_AT_EPOCH":44317,"BSTAR":0.00036192527,"MEAN_MOTION_DOT":6.811e-5,"MEAN_MOTION_DDOT":0},{"OBJECT_NAME":"S-NET C","OBJECT_ID":"2018-014K","EPOCH":"2026-03-06T12:26:16.358496","MEAN_MOTION":15.15542461,"ECCENTRICITY":0.00107568,"INCLINATION":97.5472,"RA_OF_ASC_NODE":331.2201,"ARG_OF_PERICENTER":13.0929,"MEAN_ANOMALY":347.0581,"EPHEMERIS_TYPE":0,"CLASSIFICATION_TYPE":"U","NORAD_CAT_ID":43189,"ELEMENT_SET_NO":999,"REV_AT_EPOCH":44175,"BSTAR":0.00040972374,"MEAN_MOTION_DOT":7.714e-5,"MEAN_MOTION_DDOT":0},{"OBJECT_NAME":"SALSAT","OBJECT_ID":"2020-068K","EPOCH":"2026-03-06T09:34:37.173504","MEAN_MOTION":15.28102969,"ECCENTRICITY":0.00085035,"INCLINATION":97.8855,"RA_OF_ASC_NODE":62.338,"ARG_OF_PERICENTER":310.6744,"MEAN_ANOMALY":49.3754,"EPHEMERIS_TYPE":0,"CLASSIFICATION_TYPE":"U","NORAD_CAT_ID":46495,"ELEMENT_SET_NO":999,"REV_AT_EPOCH":29965,"BSTAR":0.00041380483,"MEAN_MOTION_DOT":0.00011274,"MEAN_MOTION_DDOT":0}]
