APRIZESAT 2             
1 28366U 04025A   26065.02684303  .00000413  00000+0  14128-3 0  9997
2 28366  98.0904 236.8986 0105249 200.9072 158.7797 14.37984837136817
SAUDICOMSAT 1           
1 28369U 04025D   26065.30621725  .00000722  00000+0  17657-3 0  9993
2 28369  98.5810  72.6496 0031770 340.7898  19.2099 14.55384339149168
SAUDICOMSAT 2           
1 28370U 04025E   26065.44109226  .00000457  00000+0  12859-3 0  9991
2 28370  98.6687  74.7669 0055034 209.7937 150.0119 14.49906274145215
APRIZESAT 1             
1 28372U 04025G   26065.80692929  .00000438  00000+0  11975-3 0  9997
2 28372  98.6345  73.7293 0045812 106.1282 254.4962 14.51712321147056
NANOSAT-1               
1 28493U 04049B   26065.81327005  .00002038  00000+0  27723-3 0  9994
2 28493  98.2094 200.0862 0002852 257.6901 102.3991 14.79910503140307
SAUDICOMSAT 7           
1 31119U 07012C   26065.39475372  .00000976  00000+0  18371-3 0  9998
2 31119  98.3676  37.4932 0056266 157.3933 202.9767 14.65964588  7376
SAUDICOMSAT 6           
1 31121U 07012E   26065.39651518  .00001151  00000+0  22974-3 0  9999
2 31121  98.3985  31.0793 0070700 287.2489  72.0984 14.62424822  5166
SAUDICOMSAT 5           
1 31124U 07012H   26065.37468648  .00001288  00000+0  22996-3 0  9995
2 31124  98.3388  38.2397 0048850  89.0928 271.5872 14.67994553  8514
SAUDICOMSAT 3           
1 31125U 07012J   26065.85232411  .00001810  00000+0  30355-3 0  9995
2 31125  98.3046  39.2863 0039734  17.4828 342.7735 14.70516673  9786
SAUDICOMSAT 4           
1 31127U 07012L   26065.87113747  .00000941  00000+0  18293-3 0  9990
2 31127  98.3879  36.4296 0062697 217.1984 142.4866 14.64373760  6314
APRIZESAT 4             
1 35684U 09041D   26065.14798102  .00001000  00000+0  12625-3 0  9990
2 35684  98.1492 138.3975 0042211 296.5139  63.1748 14.83699785896082
APRIZESAT 3             
1 35686U 09041F   26065.83494550  .00002741  00000+0  24132-3 0  9997
2 35686  98.1899 214.2676 0063121  46.0435 314.5967 14.95889516901075
S-NET D                 
1 43186U 18014G   26065.30734641  .00006754  00000+0  35908-3 0  9992
2 43186  97.5438 330.7785 0009198  26.1886 333.9810 15.15572278443170
S-NET B                 
1 43187U 18014H   26065.25081654  .00006883  00000+0  36607-3 0  9996
2 43187  97.5446 330.7057 0009722  21.6200 338.5441 15.15545211443162
S-NET A                 
1 43188U 18014J   26065.30670805  .00006811  00000+0  36193-3 0  9996
2 43188  97.5456 330.9512 0009624  21.8834 338.2807 15.15578985443176
S-NET C                 
1 43189U 18014K   26065.51824489  .00007714  00000+0  40972-3 0  9992
2 43189  97.5472 331.2201 0010756  13.0929 347.0581 15.15542461441759
SALSAT                  
1 46495U 20068K   26065.39904136  .00011274  00000+0  41380-3 0  9991
2 46495  97.8855  62.3380 0008503 310.6744  49.3754 15.28102969299651
